{"type": "FeatureCollection", "features": [ {"type": "Feature", "properties": {"norad_id": 43108, "name": "BEIDOU-3 M8 (C28)", "group": "gnss", "lat": 26.91331191121892, "lon": 107.90054340756164, "alt_km": 21532.98686875079, "timestamp": "2025-12-02T10:50:47.515902+00:00", "meta": {"OBJECT_NAME": "BEIDOU-3 M8 (C28)", "OBJECT_ID": "2018-003B", "EPOCH": "2025-12-01T03:50:13.118784", "MEAN_MOTION": 1.86230755, "ECCENTRICITY": 0.0004823, "INCLINATION": 54.4999, "RA_OF_ASC_NODE": 309.2007, "ARG_OF_PERICENTER": 273.5581, "MEAN_ANOMALY": 86.3811, "EPHEMERIS_TYPE": 0, "CLASSIFICATION_TYPE": "U", "NORAD_CAT_ID": 43108, "ELEMENT_SET_NO": 999, "REV_AT_EPOCH": 5367, "BSTAR": 0, "MEAN_MOTION_DOT": -5.7e-07, "MEAN_MOTION_DDOT": 0}, "tle": {"line1": "1 43108U 18003B   25335.15987406 -.00000057  00000+0  00000+0 0  9997", "line2": "2 43108  54.4999 309.2007 0004823 273.5581  86.3811  1.86230755 53672"}}, "geometry": {"type": "Point", "coordinates": [107.90054340756164, 26.91331191121892]}}, {"type": "Feature", "properties": {"norad_id": 43207, "name": "BEIDOU-3 M4 (C22)", "group": "gnss", "lat": -24.686152387171717, "lon": -92.64227098687523, "alt_km": 21542.390229860204, "timestamp": "2025-12-02T10:50:47.515913+00:00", "meta": {"OBJECT_NAME": "BEIDOU-3 M4 (C22)", "OBJECT_ID": "2018-018A", "EPOCH": "2025-12-02T03:19:43.852800", "MEAN_MOTION": 1.86230706, "ECCENTRICITY": 0.0004075, "INCLINATION": 56.4767, "RA_OF_ASC_NODE": 69.6557, "ARG_OF_PERICENTER": 15.1369, "MEAN_ANOMALY": 344.8773, "EPHEMERIS_TYPE": 0, "CLASSIFICATION_TYPE": "U", "NORAD_CAT_ID": 43207, "ELEMENT_SET_NO": 999, "REV_AT_EPOCH": 5307, "BSTAR": 0, "MEAN_MOTION_DOT": -4.5e-07, "MEAN_MOTION_DDOT": 0}, "tle": {"line1": "1 43207U 18018A   25336.13870200 -.00000045  00000+0  00000+0 0  9992", "line2": "2 43207  56.4767  69.6557 0004075  15.1369 344.8773  1.86230706 53076"}}, "geometry": {"type": "Point", "coordinates": [-92.64227098687523, -24.686152387171717]}}, {"type": "Feature", "properties": {"norad_id": 43208, "name": "BEIDOU-3 M3 (C21)", "group": "gnss", "lat": 12.154077577296631, "lon": -118.54816381279275, "alt_km": 21542.11355354552, "timestamp": "2025-12-02T10:50:47.515950+00:00", "meta": {"OBJECT_NAME": "BEIDOU-3 M3 (C21)", "OBJECT_ID": "2018-018B", "EPOCH": "2025-12-01T16:02:18.991968", "MEAN_MOTION": 1.8623092, "ECCENTRICITY": 0.0006202, "INCLINATION": 56.4757, "RA_OF_ASC_NODE": 69.6754, "ARG_OF_PERICENTER": 317.7511, "MEAN_ANOMALY": 42.2037, "EPHEMERIS_TYPE": 0, "CLASSIFICATION_TYPE": "U", "NORAD_CAT_ID": 43208, "ELEMENT_SET_NO": 999, "REV_AT_EPOCH": 5306, "BSTAR": 0, "MEAN_MOTION_DOT": -4.2e-07, "MEAN_MOTION_DDOT": 0}, "tle": {"line1": "1 43208U 18018B   25335.66827537 -.00000042  00000+0  00000+0 0  9992", "line2": "2 43208  56.4757  69.6754 0006202 317.7511  42.2037  1.86230920 53068"}}, "geometry": {"type": "Point", "coordinates": [-118.54816381279275, 12.154077577296631]}}, {"type": "Feature", "properties": {"norad_id": 43245, "name": "BEIDOU-3 M9 (C29)", "group": "gnss", "lat": 16.56604592889573, "lon": -40.88088467149105, "alt_km": 21528.00256534901, "timestamp": "2025-12-02T10:50:47.515979+00:00", "meta": {"OBJECT_NAME": "BEIDOU-3 M9 (C29)", "OBJECT_ID": "2018-029A", "EPOCH": "2025-12-01T08:20:14.784576", "MEAN_MOTION": 1.86227904, "ECCENTRICITY": 0.00017985, "INCLINATION": 54.3765, "RA_OF_ASC_NODE": 306.8658, "ARG_OF_PERICENTER": 272.1738, "MEAN_ANOMALY": 87.7976, "EPHEMERIS_TYPE": 0, "CLASSIFICATION_TYPE": "U", "NORAD_CAT_ID": 43245, "ELEMENT_SET_NO": 999, "REV_AT_EPOCH": 5221, "BSTAR": 0, "MEAN_MOTION_DOT": -5.8e-07, "MEAN_MOTION_DDOT": 0}, "tle": {"line1": "1 43245U 18029A   25335.34739334 -.00000058  00000+0  00000+0 0  9994", "line2": "2 43245  54.3765 306.8658 0001798 272.1738  87.7976  1.86227904 52214"}}, "geometry": {"type": "Point", "coordinates": [-40.88088467149105, 16.56604592889573]}}, {"type": "Feature", "properties": {"norad_id": 43246, "name": "BEIDOU-3 M10 (C30)", "group": "gnss", "lat": 46.908254392741114, "lon": -3.1447666791566964, "alt_km": 21518.074362518924, "timestamp": "2025-12-02T10:50:47.516001+00:00", "meta": {"OBJECT_NAME": "BEIDOU-3 M10 (C30)", "OBJECT_ID": "2018-029B", "EPOCH": "2025-11-29T03:14:13.986240", "MEAN_MOTION": 1.86228967, "ECCENTRICITY": 0.00039142, "INCLINATION": 54.3758, "RA_OF_ASC_NODE": 306.9698, "ARG_OF_PERICENTER": 358.6776, "MEAN_ANOMALY": 1.3207, "EPHEMERIS_TYPE": 0, "CLASSIFICATION_TYPE": "U", "NORAD_CAT_ID": 43246, "ELEMENT_SET_NO": 999, "REV_AT_EPOCH": 5215, "BSTAR": 0, "MEAN_MOTION_DOT": -4.6e-07, "MEAN_MOTION_DDOT": 0}, "tle": {"line1": "1 43246U 18029B   25333.13488410 -.00000046  00000+0  00000+0 0  9993", "line2": "2 43246  54.3758 306.9698 0003914 358.6776   1.3207  1.86228967 52158"}}, "geometry": {"type": "Point", "coordinates": [-3.1447666791566964, 46.908254392741114]}}, {"type": "Feature", "properties": {"norad_id": 43286, "name": "IRNSS-1I", "group": "gnss", "lat": -15.101027762467604, "lon": -73.84304178698393, "alt_km": 35708.174019588965, "timestamp": "2025-12-02T10:50:47.516019+00:00", "meta": {"OBJECT_NAME": "IRNSS-1I", "OBJECT_ID": "2018-035A", "EPOCH": "2025-12-01T20:55:25.921056", "MEAN_MOTION": 1.00277369, "ECCENTRICITY": 0.0021548, "INCLINATION": 29.1236, "RA_OF_ASC_NODE": 77.2687, "ARG_OF_PERICENTER": 181.5881, "MEAN_ANOMALY": 181.125, "EPHEMERIS_TYPE": 0, "CLASSIFICATION_TYPE": "U", "NORAD_CAT_ID": 43286, "ELEMENT_SET_NO": 999, "REV_AT_EPOCH": 2810, "BSTAR": 0, "MEAN_MOTION_DOT": 9.2e-07, "MEAN_MOTION_DDOT": 0}, "tle": {"line1": "1 43286U 18035A   25335.87182779  .00000092  00000+0  00000+0 0  9996", "line2": "2 43286  29.1236  77.2687 0021548 181.5881 181.1250  1.00277369 28101"}}, "geometry": {"type": "Point", "coordinates": [-73.84304178698393, -15.101027762467604]}}, {"type": "Feature", "properties": {"norad_id": 43508, "name": "COSMOS 2527 (756)", "group": "gnss", "lat": -8.540990841152924, "lon": 76.54604564793928, "alt_km": 19144.911471884967, "timestamp": "2025-12-02T10:50:47.516038+00:00", "meta": {"OBJECT_NAME": "COSMOS 2527 (756)", "OBJECT_ID": "2018-053A", "EPOCH": "2025-11-28T17:02:34.696320", "MEAN_MOTION": 2.1310209, "ECCENTRICITY": 0.00085767, "INCLINATION": 65.4651, "RA_OF_ASC_NODE": 80.6007, "ARG_OF_PERICENTER": 223.0414, "MEAN_ANOMALY": 136.8979, "EPHEMERIS_TYPE": 0, "CLASSIFICATION_TYPE": "U", "NORAD_CAT_ID": 43508, "ELEMENT_SET_NO": 999, "REV_AT_EPOCH": 5800, "BSTAR": 0, "MEAN_MOTION_DOT": 1.2e-07, "MEAN_MOTION_DDOT": 0}, "tle": {"line1": "1 43508U 18053A   25332.71012380  .00000012  00000+0  00000+0 0  9995", "line2": "2 43508  65.4651  80.6007 0008576 223.0414 136.8979  2.13102090 58006"}}, "geometry": {"type": "Point", "coordinates": [76.54604564793928, -8.540990841152924]}}, {"type": "Feature", "properties": {"norad_id": 43539, "name": "BEIDOU-2 IGSO-7 (C16)", "group": "gnss", "lat": -0.032426615797136286, "lon": -15.216589166124999, "alt_km": 35565.00578485743, "timestamp": "2025-12-02T10:50:47.516055+00:00", "meta": {"OBJECT_NAME": "BEIDOU-2 IGSO-7 (C16)", "OBJECT_ID": "2018-057A", "EPOCH": "2025-12-01T22:54:18.573696", "MEAN_MOTION": 1.00259974, "ECCENTRICITY": 0.0092472, "INCLINATION": 55.1727, "RA_OF_ASC_NODE": 164.7667, "ARG_OF_PERICENTER": 235.1548, "MEAN_ANOMALY": 126.2091, "EPHEMERIS_TYPE": 0, "CLASSIFICATION_TYPE": "U", "NORAD_CAT_ID": 43539, "ELEMENT_SET_NO": 999, "REV_AT_EPOCH": 2715, "BSTAR": 0, "MEAN_MOTION_DOT": -1.8e-07, "MEAN_MOTION_DDOT": 0}, "tle": {"line1": "1 43539U 18057A   25335.95438164 -.00000018  00000+0  00000+0 0  9991", "line2": "2 43539  55.1727 164.7667 0092472 235.1548 126.2091  1.00259974 27155"}}, "geometry": {"type": "Point", "coordinates": [-15.216589166124999, -0.032426615797136286]}}, {"type": "Feature", "properties": {"norad_id": 43564, "name": "GSAT0221 (GALILEO 25)", "group": "gnss", "lat": -49.98832517750956, "lon": -63.02134652244803, "alt_km": 23208.606447786864, "timestamp": "2025-12-02T10:50:47.516073+00:00", "meta": {"OBJECT_NAME": "GSAT0221 (GALILEO 25)", "OBJECT_ID": "2018-060A", "EPOCH": "2025-12-01T09:15:23.303232", "MEAN_MOTION": 1.70475711, "ECCENTRICITY": 0.00066191, "INCLINATION": 57.2301, "RA_OF_ASC_NODE": 347.1247, "ARG_OF_PERICENTER": 279.777, "MEAN_ANOMALY": 80.1905, "EPHEMERIS_TYPE": 0, "CLASSIFICATION_TYPE": "U", "NORAD_CAT_ID": 43564, "ELEMENT_SET_NO": 999, "REV_AT_EPOCH": 4579, "BSTAR": 0, "MEAN_MOTION_DOT": -5.9e-07, "MEAN_MOTION_DDOT": 0}, "tle": {"line1": "1 43564U 18060A   25335.38568638 -.00000059  00000+0  00000+0 0  9995", "line2": "2 43564  57.2301 347.1247 0006619 279.7770  80.1905  1.70475711 45792"}}, "geometry": {"type": "Point", "coordinates": [-63.02134652244803, -49.98832517750956]}}, {"type": "Feature", "properties": {"norad_id": 43565, "name": "GSAT0222 (GALILEO 26)", "group": "gnss", "lat": 16.96658439467348, "lon": 155.77364290663166, "alt_km": 23223.184423730916, "timestamp": "2025-12-02T10:50:47.516091+00:00", "meta": {"OBJECT_NAME": "GSAT0222 (GALILEO 26)", "OBJECT_ID": "2018-060B", "EPOCH": "2025-11-29T06:12:28.687968", "MEAN_MOTION": 1.70475509, "ECCENTRICITY": 0.00061732, "INCLINATION": 57.2346, "RA_OF_ASC_NODE": 347.1853, "ARG_OF_PERICENTER": 259.4518, "MEAN_ANOMALY": 100.5223, "EPHEMERIS_TYPE": 0, "CLASSIFICATION_TYPE": "U", "NORAD_CAT_ID": 43565, "ELEMENT_SET_NO": 999, "REV_AT_EPOCH": 4580, "BSTAR": 0, "MEAN_MOTION_DOT": -5.5e-07, "MEAN_MOTION_DDOT": 0}, "tle": {"line1": "1 43565U 18060B   25333.25866537 -.00000055  00000+0  00000+0 0  9995", "line2": "2 43565  57.2346 347.1853 0006173 259.4518 100.5223  1.70475509 45802"}}, "geometry": {"type": "Point", "coordinates": [155.77364290663166, 16.96658439467348]}}]}